H1 CPF 01  gfz 2021 07 28 00  7091 tandemx   
H2 1003001  6202 36605    2021 07 28 00 59 42 2021 08 02 00 00 42   120 1 1  0 0 0
H9
10 0 59423  53262.000000  0    3438911.345   4623195.526  -3784188.528
10 0 59423  53382.000000  0    3858662.550   4860396.773  -2999729.899
10 0 59423  53502.000000  0    4214519.649   5006108.502  -2162626.396
10 0 59423  53622.000000  0    4498596.762   5058894.551  -1287533.473
10 0 59423  53742.000000  0    4704249.967   5019075.325   -389805.648
10 0 59423  53862.000000  0    4826231.861   4888705.557    514778.595
10 0 59423  53982.000000  0    4860817.825   4671516.684   1410300.789
10 0 59423  54102.000000  0    4805903.894   4372827.278   2280989.761
10 0 59423  54222.000000  0    4661073.333   3999420.729   3111509.163
10 0 59423  54342.000000  0    4427626.496   3559392.744   3887236.274
10 0 59423  54462.000000  0    4108575.140   3061974.111   4594524.444
10 0 59423  54582.000000  0    3708603.977   2517334.388   5220945.205
10 0 59423  54702.000000  0    3233996.542   1936369.485   5755507.616
10 0 59423  54822.000000  0    2692529.865   1330480.199   6188846.302
10 0 59423  54942.000000  0    2093342.213    711345.251   6513379.674
10 0 59423  55062.000000  0    1446775.031     90695.508   6723435.486
10 0 59423  55182.000000  0     764192.074   -519906.893   6815345.714
10 0 59423  55302.000000  0      57778.194  -1109284.290   6787507.369
10 0 59423  55422.000000  0    -659678.554  -1666847.836   6640407.968
10 0 59423  55542.000000  0   -1375018.179  -2182787.754   6376616.603
10 0 59423  55662.000000  0   -2074948.383  -2648245.568   6000740.359
10 0 59423  55782.000000  0   -2746289.549  -3055466.848   5519350.475
10 0 59423  55902.000000  0   -3376225.538  -3397934.460   4940875.725
10 0 59423  56022.000000  0   -3952553.493  -3670476.568   4275459.312
10 0 59423  56142.000000  0   -4463924.413  -3869347.402   3534784.349
10 0 59423  56262.000000  0   -4900071.421  -3992279.984   2731871.360
10 0 59423  56382.000000  0   -5252021.851  -4038510.051   1880850.015
10 0 59423  56502.000000  0   -5512287.112  -4008769.274    996706.398
10 0 59423  56622.000000  0   -5675024.390  -3905246.828     95012.785
10 0 59423  56742.000000  0   -5736166.812  -3731521.206   -808354.667
10 0 59423  56862.000000  0   -5693518.294  -3492463.632  -1697505.171
10 0 59423  56982.000000  0   -5546808.857  -3194114.371  -2556822.301
10 0 59423  57102.000000  0   -5297710.755  -2843537.046  -3371243.950
10 0 59423  57222.000000  0   -4949816.150  -2448654.947  -4126529.210
10 0 59423  57342.000000  0   -4508577.527  -2018073.393  -4809506.550
10 0 59423  57462.000000  0   -3981212.520  -1560893.232  -5408299.398
10 0 59423  57582.000000  0   -3376576.080  -1086519.057  -5912525.261
10 0 59423  57702.000000  0   -2705003.706   -604466.920  -6313465.224
10 0 59423  57822.000000  0   -1978129.503   -124175.900  -6604203.287
10 0 59423  57942.000000  0   -1208681.881    345172.752  -6779733.842
10 0 59423  58062.000000  0    -410262.893    794825.828  -6837037.629
10 0 59423  58182.000000  0     402887.004   1216617.263  -6775127.816
10 0 59423  58302.000000  0    1216135.553   1603111.684  -6595065.905
10 0 59423  58422.000000  0    2014716.606   1947733.227  -6299947.618
10 0 59423  58542.000000  0    2783993.089   2244876.456  -5894855.173
10 0 59423  58662.000000  0    3509721.809   2489997.391  -5386777.909
10 0 59423  58782.000000  0    4178314.989   2679683.676  -4784503.099
10 0 59423  58902.000000  0    4777097.685   2811703.505  -4098475.990
10 0 59423  59022.000000  0    5294553.747   2885030.896  -3340627.962
10 0 59423  59142.000000  0    5720554.097   2899846.892  -2524176.877
10 0 59423  59262.000000  0    6046565.419   2857517.255  -1663401.729
10 0 59423  59382.000000  0    6265830.432   2760544.291   -773392.220
10 0 59423  59502.000000  0    6373515.828   2612495.197    130218.753
10 0 59423  59622.000000  0    6366822.807   2417906.923   1031536.943
10 0 59423  59742.000000  0    6245057.067   2182171.011   1914692.852
10 0 59423  59862.000000  0    6009658.790   1911402.456   2764130.254
10 0 59423  59982.000000  0    5664187.582   1612292.825   3564889.253
10 0 59423  60102.000000  0    5214264.645   1291953.596   4302876.803
10 0 59423  60222.000000  0    4667472.763    957752.953   4965117.966
10 0 59423  60342.000000  0    4033220.505    617151.376   5539984.240
10 0 59423  60462.000000  0    3322570.488    277537.983   6017396.779
10 0 59423  60582.000000  0    2548036.754    -53926.492   6388997.193
10 0 59423  60702.000000  0    1723359.262   -370457.063   6648287.311
10 0 59423  60822.000000  0     863256.750   -665780.987   6790738.149
10 0 59423  60942.000000  0     -16839.028   -934260.837   6813864.441
10 0 59423  61062.000000  0    -901060.495  -1171001.122   6717264.168
10 0 59423  61182.000000  0   -1773389.482  -1371937.677   6502624.237
10 0 59423  61302.000000  0   -2617945.666  -1533907.109   6173691.781
10 0 59423  61422.000000  0   -3419274.130  -1654695.832   5736214.365
10 0 59423  61542.000000  0   -4162631.896  -1733069.780   5197847.427
10 0 59423  61662.000000  0   -4834264.796  -1768783.431   4568025.671
10 0 59423  61782.000000  0   -5421669.260  -1762566.729   3857801.941
10 0 59423  61902.000000  0   -5913832.651  -1716089.893   3079655.677
10 0 59423  62022.000000  0   -6301448.145  -1631907.735   2247275.538
10 0 59423  62142.000000  0   -6577101.470  -1513385.257   1375317.639
10 0 59423  62262.000000  0   -6735421.098  -1364604.724    479140.705
10 0 59423  62382.000000  0   -6773187.013  -1190256.433   -425472.313
10 0 59423  62502.000000  0   -6689396.534   -995516.438  -1322601.363
10 0 59423  62622.000000  0   -6485284.857   -785914.518  -2196478.220
10 0 59423  62742.000000  0   -6164301.169   -567196.328  -3031770.139
10 0 59423  62862.000000  0   -5732041.241   -345183.303  -3813854.322
10 0 59423  62982.000000  0   -5196137.170   -125631.939  -4529075.528
10 0 59423  63102.000000  0   -4566109.391     85902.404  -5164981.422
10 0 59423  63222.000000  0   -3853185.637    284193.866  -5710533.383
10 0 59423  63342.000000  0   -3070089.842    464463.732  -6156288.525
10 0 59423  63462.000000  0   -2230808.343    622485.398  -6494550.517
10 0 59423  63582.000000  0   -1350338.337    754674.621  -6719491.243
10 0 59423  63702.000000  0    -444420.805    858164.294  -6827240.876
10 0 59423  63822.000000  0     470735.376    930862.352  -6815945.631
10 0 59423  63942.000000  0    1378734.941    971491.449  -6685797.541
10 0 59423  64062.000000  0    2263284.158    979611.031  -6439033.566
10 0 59423  64182.000000  0    3108477.586    955621.133  -6079901.076
10 0 59423  64302.000000  0    3899080.026    900747.590  -5614591.384
10 0 59423  64422.000000  0    4620799.069    817008.399  -5051143.607
10 0 59423  64542.000000  0    5260546.471    707162.487  -4399317.772
10 0 59423  64662.000000  0    5806682.472    574641.407  -3670436.176
10 0 59423  64782.000000  0    6249236.774    423464.483  -2877195.524
10 0 59423  64902.000000  0    6580102.571    258139.773  -2033452.530
10 0 59423  65022.000000  0    6793198.966     83552.102  -1153983.757
10 0 59423  65142.000000  0    6884594.037    -95158.829   -254224.311
10 0 59423  65262.000000  0    6852586.800   -272726.979    650007.503
10 0 59423  65382.000000  0    6697745.905   -443893.086   1542795.756
10 0 59423  65502.000000  0    6422902.360   -603538.087   2408415.960
10 0 59423  65622.000000  0    6033095.803   -746813.576   3231621.900
10 0 59423  65742.000000  0    5535475.230   -869265.615   3997920.908
10 0 59423  65862.000000  0    4939160.803   -966948.988   4693833.475
10 0 59423  65982.000000  0    4255066.393  -1036529.894   5307132.959
10 0 59423  66102.000000  0    3495689.265  -1075372.304   5827058.901
10 0 59423  66222.000000  0    2674872.882  -1081608.202   6244502.073
10 0 59423  66342.000000  0    1807547.705  -1054190.237   6552158.376
10 0 59423  66462.000000  0     909455.232   -992925.779   6744651.711
10 0 59423  66582.000000  0      -3141.333   -898490.943   6818622.248
10 0 59423  66702.000000  0    -913752.014   -772424.973   6772779.999
10 0 59423  66822.000000  0   -1805956.703   -617105.364   6607925.200
10 0 59423  66942.000000  0   -2663699.681   -435703.325   6326935.024
10 0 59423  67062.000000  0   -3471577.838   -232120.703   5934717.537
10 0 59423  67182.000000  0   -4215119.637    -10909.248   5438132.174
10 0 59423  67302.000000  0   -4881049.636    222826.472   4845875.939
10 0 59423  67422.000000  0   -5457532.769    463540.395   4168336.388
10 0 59423  67542.000000  0   -5934393.478    705369.148   3417412.972
10 0 59423  67662.000000  0   -6303304.468    942266.251   2606310.316
10 0 59423  67782.000000  0   -6557942.095   1168143.458   1749305.245
10 0 59423  67902.000000  0   -6694103.382   1377015.347    861491.802
10 0 59423  68022.000000  0   -6709781.745   1563144.209    -41491.727
10 0 59423  68142.000000  0   -6605197.241   1721181.172   -943747.484
10 0 59423  68262.000000  0   -6382781.458   1846299.196  -1829406.644
10 0 59423  68382.000000  0   -6047119.200   1934315.842  -2682916.124
10 0 59423  68502.000000  0   -5604846.821   1981802.579  -3489318.932
10 0 59423  68622.000000  0   -5064509.682   1986176.532  -4234519.720
10 0 59423  68742.000000  0   -4436384.803   1945773.393  -4905529.662
10 0 59423  68862.000000  0   -3732273.810   1859900.365  -5490687.207
10 0 59423  68982.000000  0   -2965272.454   1728868.524  -5979851.467
10 0 59423  69102.000000  0   -2149521.871   1554004.026  -6364567.860
10 0 59423  69222.000000  0   -1299944.373   1337638.272  -6638203.147
10 0 59423  69342.000000  0    -431971.511   1083077.201  -6796047.517
10 0 59423  69462.000000  0     438730.944    794550.945  -6835386.085
10 0 59423  69582.000000  0    1296537.765    477145.134  -6755541.648
10 0 59423  69702.000000  0    2126139.372    136713.020  -6557886.526
99
